[{"OBJECT_NAME":"KUIPER-00096","OBJECT_ID":"2025-171D","EPOCH":"2026-03-09T22:44:25.114560","MEAN_MOTION":14.79934013,"ECCENTRICITY":4.317e-5,"INCLINATION":51.8989,"RA_OF_ASC_NODE":156.9441,"ARG_OF_PERICENTER":82.7008,"MEAN_ANOMALY":277.4003,"EPHEMERIS_TYPE":0,"CLASSIFICATION_TYPE":"U","NORAD_CAT_ID":65135,"ELEMENT_SET_NO":999,"REV_AT_EPOCH":3293,"BSTAR":0.00019035525,"MEAN_MOTION_DOT":1.23e-5,"MEAN_MOTION_DDOT":0},{"OBJECT_NAME":"THOR ABLESTAR DEB","OBJECT_ID":"1961-015DR","EPOCH":"2026-03-09T22:24:08.565408","MEAN_MOTION":14.84611176,"ECCENTRICITY":0.00216103,"INCLINATION":66.7426,"RA_OF_ASC_NODE":9.1053,"ARG_OF_PERICENTER":15.8914,"MEAN_ANOMALY":344.2885,"EPHEMERIS_TYPE":0,"CLASSIFICATION_TYPE":"U","NORAD_CAT_ID":351,"ELEMENT_SET_NO":999,"REV_AT_EPOCH":36299,"BSTAR":0.0018766507,"MEAN_MOTION_DOT":0.0001588,"MEAN_MOTION_DDOT":0}]
